{"type": "FeatureCollection", "features": [ {"type": "Feature", "properties": {"norad_id": 42987, "name": "SKYSAT-C11", "group": "resource", "lat": 43.057879966395625, "lon": -41.39338502729254, "alt_km": 419.2393516123293, "timestamp": "2025-12-19T22:41:52.036664+00:00", "meta": {"OBJECT_NAME": "SKYSAT-C11", "OBJECT_ID": "2017-068A", "EPOCH": "2025-12-19T19:00:25.726752", "MEAN_MOTION": 15.47730564, "ECCENTRICITY": 0.0001151, "INCLINATION": 97.4143, "RA_OF_ASC_NODE": 131.4598, "ARG_OF_PERICENTER": 100.0017, "MEAN_ANOMALY": 260.1363, "EPHEMERIS_TYPE": 0, "CLASSIFICATION_TYPE": "U", "NORAD_CAT_ID": 42987, "ELEMENT_SET_NO": 999, "REV_AT_EPOCH": 45540, "BSTAR": 0.00031864, "MEAN_MOTION_DOT": 0.00016416, "MEAN_MOTION_DDOT": 0}, "tle": {"line1": "1 42987U 17068A   25353.79196443  .00016416  00000+0  31864-3 0  9995", "line2": "2 42987  97.4143 131.4598 0001151 100.0017 260.1363 15.47730564455409"}}, "geometry": {"type": "Point", "coordinates": [-41.39338502729254, 43.057879966395625]}}, {"type": "Feature", "properties": {"norad_id": 42988, "name": "SKYSAT-C10", "group": "resource", "lat": 3.3279377265372316, "lon": -54.7486547877479, "alt_km": 472.122198150284, "timestamp": "2025-12-19T22:41:52.036676+00:00", "meta": {"OBJECT_NAME": "SKYSAT-C10", "OBJECT_ID": "2017-068B", "EPOCH": "2025-12-18T22:25:10.285248", "MEAN_MOTION": 15.32190604, "ECCENTRICITY": 0.00054557, "INCLINATION": 97.426, "RA_OF_ASC_NODE": 123.8024, "ARG_OF_PERICENTER": 86.4338, "MEAN_ANOMALY": 273.7528, "EPHEMERIS_TYPE": 0, "CLASSIFICATION_TYPE": "U", "NORAD_CAT_ID": 42988, "ELEMENT_SET_NO": 999, "REV_AT_EPOCH": 45474, "BSTAR": 0.00029573083, "MEAN_MOTION_DOT": 9.118e-05, "MEAN_MOTION_DDOT": 0}, "tle": {"line1": "1 42988U 17068B   25352.93414682  .00009118  00000+0  29573-3 0  9994", "line2": "2 42988  97.4260 123.8024 0005455  86.4338 273.7528 15.32190604454741"}}, "geometry": {"type": "Point", "coordinates": [-54.7486547877479, 3.3279377265372316]}}, {"type": "Feature", "properties": {"norad_id": 42989, "name": "SKYSAT-C9", "group": "resource", "lat": 51.5310449801078, "lon": -46.30363807973966, "alt_km": 449.3404591381086, "timestamp": "2025-12-19T22:41:52.036686+00:00", "meta": {"OBJECT_NAME": "SKYSAT-C9", "OBJECT_ID": "2017-068C", "EPOCH": "2025-12-18T22:41:41.803008", "MEAN_MOTION": 15.36203039, "ECCENTRICITY": 0.0010548, "INCLINATION": 97.4193, "RA_OF_ASC_NODE": 123.2487, "ARG_OF_PERICENTER": 67.9248, "MEAN_ANOMALY": 292.3115, "EPHEMERIS_TYPE": 0, "CLASSIFICATION_TYPE": "U", "NORAD_CAT_ID": 42989, "ELEMENT_SET_NO": 999, "REV_AT_EPOCH": 45503, "BSTAR": 0.00029759929, "MEAN_MOTION_DOT": 0.00010438, "MEAN_MOTION_DDOT": 0}, "tle": {"line1": "1 42989U 17068C   25352.94562272  .00010438  00000+0  29760-3 0  9990", "line2": "2 42989  97.4193 123.2487 0010548  67.9248 292.3115 15.36203039455030"}}, "geometry": {"type": "Point", "coordinates": [-46.30363807973966, 51.5310449801078]}}, {"type": "Feature", "properties": {"norad_id": 42990, "name": "SKYSAT-C8", "group": "resource", "lat": 16.871196967117164, "lon": 121.70977782027897, "alt_km": 466.9760900468309, "timestamp": "2025-12-19T22:41:52.036699+00:00", "meta": {"OBJECT_NAME": "SKYSAT-C8", "OBJECT_ID": "2017-068D", "EPOCH": "2025-12-18T19:59:35.453472", "MEAN_MOTION": 15.33051371, "ECCENTRICITY": 0.00011703, "INCLINATION": 97.4282, "RA_OF_ASC_NODE": 122.8599, "ARG_OF_PERICENTER": 316.3061, "MEAN_ANOMALY": 43.8088, "EPHEMERIS_TYPE": 0, "CLASSIFICATION_TYPE": "U", "NORAD_CAT_ID": 42990, "ELEMENT_SET_NO": 999, "REV_AT_EPOCH": 45464, "BSTAR": 0.00030081895, "MEAN_MOTION_DOT": 9.527e-05, "MEAN_MOTION_DDOT": 0}, "tle": {"line1": "1 42990U 17068D   25352.83304923  .00009527  00000+0  30082-3 0  9993", "line2": "2 42990  97.4282 122.8599 0001170 316.3061  43.8088 15.33051371454646"}}, "geometry": {"type": "Point", "coordinates": [121.70977782027897, 16.871196967117164]}}, {"type": "Feature", "properties": {"norad_id": 42991, "name": "SKYSAT-C7", "group": "resource", "lat": -36.80668757045331, "lon": -60.59046504115763, "alt_km": 479.8306659228465, "timestamp": "2025-12-19T22:41:52.036710+00:00", "meta": {"OBJECT_NAME": "SKYSAT-C7", "OBJECT_ID": "2017-068E", "EPOCH": "2025-12-18T22:14:48.659712", "MEAN_MOTION": 15.32453251, "ECCENTRICITY": 0.00072381, "INCLINATION": 97.429, "RA_OF_ASC_NODE": 123.9903, "ARG_OF_PERICENTER": 38.2093, "MEAN_ANOMALY": 321.9661, "EPHEMERIS_TYPE": 0, "CLASSIFICATION_TYPE": "U", "NORAD_CAT_ID": 42991, "ELEMENT_SET_NO": 999, "REV_AT_EPOCH": 45472, "BSTAR": 0.00029204968, "MEAN_MOTION_DOT": 9.081e-05, "MEAN_MOTION_DDOT": 0}, "tle": {"line1": "1 42991U 17068E   25352.92695208  .00009081  00000+0  29205-3 0  9993", "line2": "2 42991  97.4290 123.9903 0007238  38.2093 321.9661 15.32453251454721"}}, "geometry": {"type": "Point", "coordinates": [-60.59046504115763, -36.80668757045331]}}, {"type": "Feature", "properties": {"norad_id": 42992, "name": "SKYSAT-C6", "group": "resource", "lat": -47.36612146704172, "lon": 133.59755405456903, "alt_km": 479.02011755615695, "timestamp": "2025-12-19T22:41:52.036721+00:00", "meta": {"OBJECT_NAME": "SKYSAT-C6", "OBJECT_ID": "2017-068F", "EPOCH": "2025-12-19T08:47:41.145216", "MEAN_MOTION": 15.31619298, "ECCENTRICITY": 0.000501, "INCLINATION": 97.4324, "RA_OF_ASC_NODE": 124.8648, "ARG_OF_PERICENTER": 64.6315, "MEAN_ANOMALY": 295.5445, "EPHEMERIS_TYPE": 0, "CLASSIFICATION_TYPE": "U", "NORAD_CAT_ID": 42992, "ELEMENT_SET_NO": 999, "REV_AT_EPOCH": 45477, "BSTAR": 0.00026559, "MEAN_MOTION_DOT": 8.034e-05, "MEAN_MOTION_DDOT": 0}, "tle": {"line1": "1 42992U 17068F   25353.36644844  .00008034  00000+0  26559-3 0  9999", "line2": "2 42992  97.4324 124.8648 0005010  64.6315 295.5445 15.31619298454777"}}, "geometry": {"type": "Point", "coordinates": [133.59755405456903, -47.36612146704172]}}, {"type": "Feature", "properties": {"norad_id": 43111, "name": "CARTOSAT-2F", "group": "resource", "lat": 77.15684624746429, "lon": -93.60816080346025, "alt_km": 500.1234085586575, "timestamp": "2025-12-19T22:41:52.036732+00:00", "meta": {"OBJECT_NAME": "CARTOSAT-2F", "OBJECT_ID": "2018-004A", "EPOCH": "2025-12-19T17:30:53.161344", "MEAN_MOTION": 15.19187679, "ECCENTRICITY": 0.000135, "INCLINATION": 97.4311, "RA_OF_ASC_NODE": 51.2553, "ARG_OF_PERICENTER": 107.5631, "MEAN_ANOMALY": 252.5751, "EPHEMERIS_TYPE": 0, "CLASSIFICATION_TYPE": "U", "NORAD_CAT_ID": 43111, "ELEMENT_SET_NO": 999, "REV_AT_EPOCH": 44008, "BSTAR": 0.00020449, "MEAN_MOTION_DOT": 4.234e-05, "MEAN_MOTION_DDOT": 0}, "tle": {"line1": "1 43111U 18004A   25353.72978196  .00004234  00000+0  20449-3 0  9994", "line2": "2 43111  97.4311  51.2553 0001350 107.5631 252.5751 15.19187679440087"}}, "geometry": {"type": "Point", "coordinates": [-93.60816080346025, 77.15684624746429]}}, {"type": "Feature", "properties": {"norad_id": 43259, "name": "GAOFEN-1 02", "group": "resource", "lat": -17.07043821676338, "lon": -130.76230630572593, "alt_km": 644.0424893784084, "timestamp": "2025-12-19T22:41:52.036743+00:00", "meta": {"OBJECT_NAME": "GAOFEN-1 02", "OBJECT_ID": "2018-031A", "EPOCH": "2025-12-19T18:33:16.646112", "MEAN_MOTION": 14.76427979, "ECCENTRICITY": 0.0002179, "INCLINATION": 98.0802, "RA_OF_ASC_NODE": 51.5653, "ARG_OF_PERICENTER": 190.2213, "MEAN_ANOMALY": 169.8953, "EPHEMERIS_TYPE": 0, "CLASSIFICATION_TYPE": "U", "NORAD_CAT_ID": 43259, "ELEMENT_SET_NO": 999, "REV_AT_EPOCH": 41622, "BSTAR": 6.5699e-05, "MEAN_MOTION_DOT": 4.05e-06, "MEAN_MOTION_DDOT": 0}, "tle": {"line1": "1 43259U 18031A   25353.77310933  .00000405  00000+0  65699-4 0  9994", "line2": "2 43259  98.0802  51.5653 0002179 190.2213 169.8953 14.76427979416226"}}, "geometry": {"type": "Point", "coordinates": [-130.76230630572593, -17.07043821676338]}}, {"type": "Feature", "properties": {"norad_id": 43260, "name": "GAOFEN-1 03", "group": "resource", "lat": -46.60442644277299, "lon": 60.253836863255536, "alt_km": 646.2853890200558, "timestamp": "2025-12-19T22:41:52.036753+00:00", "meta": {"OBJECT_NAME": "GAOFEN-1 03", "OBJECT_ID": "2018-031B", "EPOCH": "2025-12-19T18:01:54.148224", "MEAN_MOTION": 14.76450266, "ECCENTRICITY": 0.0001709, "INCLINATION": 98.079, "RA_OF_ASC_NODE": 51.4192, "ARG_OF_PERICENTER": 285.631, "MEAN_ANOMALY": 74.4711, "EPHEMERIS_TYPE": 0, "CLASSIFICATION_TYPE": "U", "NORAD_CAT_ID": 43260, "ELEMENT_SET_NO": 999, "REV_AT_EPOCH": 41621, "BSTAR": 9.8836e-05, "MEAN_MOTION_DOT": 6.36e-06, "MEAN_MOTION_DDOT": 0}, "tle": {"line1": "1 43260U 18031B   25353.75132116  .00000636  00000+0  98836-4 0  9994", "line2": "2 43260  98.0790  51.4192 0001709 285.6310  74.4711 14.76450266416213"}}, "geometry": {"type": "Point", "coordinates": [60.253836863255536, -46.60442644277299]}}, {"type": "Feature", "properties": {"norad_id": 43262, "name": "GAOFEN-1 04", "group": "resource", "lat": 78.93373810517103, "lon": 5.200213765229021, "alt_km": 632.8589853680787, "timestamp": "2025-12-19T22:41:52.036763+00:00", "meta": {"OBJECT_NAME": "GAOFEN-1 04", "OBJECT_ID": "2018-031D", "EPOCH": "2025-12-19T19:04:22.316736", "MEAN_MOTION": 14.76419846, "ECCENTRICITY": 7.71e-05, "INCLINATION": 98.0804, "RA_OF_ASC_NODE": 51.6335, "ARG_OF_PERICENTER": 47.2116, "MEAN_ANOMALY": 312.9158, "EPHEMERIS_TYPE": 0, "CLASSIFICATION_TYPE": "U", "NORAD_CAT_ID": 43262, "ELEMENT_SET_NO": 999, "REV_AT_EPOCH": 41621, "BSTAR": 0.00011506, "MEAN_MOTION_DOT": 7.48e-06, "MEAN_MOTION_DDOT": 0}, "tle": {"line1": "1 43262U 18031D   25353.79470274  .00000748  00000+0  11506-3 0  9992", "line2": "2 43262  98.0804  51.6335 0000771  47.2116 312.9158 14.76419846416210"}}, "geometry": {"type": "Point", "coordinates": [5.200213765229021, 78.93373810517103]}}]}